QIANFAN-97              
1 66039U 25233G   25354.07232754 -.02076652  00000+0 -25537+1 0  9999
2 66039  88.9950  61.3812 0021133  29.8871 330.3493 13.69479886  8982
QIANFAN-98              
1 66040U 25233H   25354.11162026  .00000060  00000+0  37362-4 0  9999
2 66040  88.9953  61.2949 0015670  25.0754 335.1177 13.90773445  9035
QIANFAN-99              
1 66041U 25233J   25354.08283907 -.02092494  00000+0 -26495+1 0  9995
2 66041  88.9947  61.3818 0017950  42.8343 317.4213 13.67746255  8989
QIANFAN-100             
1 66042U 25233K   25354.10184352 -.02015159  00000+0 -21733+1 0  9996
2 66042  88.9951  61.3125 0014708  24.8590 335.3281 13.77358542  9027
QIANFAN-101             
1 66043U 25233L   25354.45151963  .00000252  00000+0  98308-4 0  9997
2 66043  88.9954  61.1420 0015142  18.9303 341.2451 14.26680399  9147
QIANFAN-102             
1 66044U 25233M   25354.07857434  .00000054  00000+0  43089-4 0  9998
2 66044  88.9939  61.3581 0013200  31.7990 328.3969 13.75405433  8998
QIANFAN-103             
1 66045U 25233N   25353.94817708  .00000047  00000+0  37662-4 0  9996
2 66045  88.9972  61.3973 0015121  24.3222 335.8652 13.71838931  8969
QIANFAN-104             
1 66046U 25233P   25354.09041602 -.01982578  00000+0 -23681+1 0  9999
2 66046  88.9943  61.3660 0014595  32.5656 327.6404 13.71114850  8991
